Delivered-To: ivangayton@gmail.com
Received: by 10.25.22.69 with SMTP id m66csp568781lfi;
        Sun, 19 Jul 2015 04:27:46 -0700 (PDT)
X-Received: by 10.68.88.33 with SMTP id bd1mr48057574pbb.124.1437305255333;
        Sun, 19 Jul 2015 04:27:35 -0700 (PDT)
Return-Path: <horizons@ssd.jpl.nasa.gov>
Received: from ssd.jpl.nasa.gov (ssd.jpl.nasa.gov. [128.149.23.134])
        by mx.google.com with ESMTPS id fg3si28363326pac.187.2015.07.19.04.27.34
        for <ivangayton@gmail.com>
        (version=TLSv1 cipher=RC4-SHA bits=128/128);
        Sun, 19 Jul 2015 04:27:35 -0700 (PDT)
Received-SPF: pass (google.com: best guess record for domain of horizons@ssd.jpl.nasa.gov designates 128.149.23.134 as permitted sender) client-ip=128.149.23.134;
Authentication-Results: mx.google.com;
       spf=pass (google.com: best guess record for domain of horizons@ssd.jpl.nasa.gov designates 128.149.23.134 as permitted sender) smtp.mail=horizons@ssd.jpl.nasa.gov
Received: from ssd.jpl.nasa.gov (localhost.localdomain [127.0.0.1])
	by ssd.jpl.nasa.gov (8.13.8/8.13.8) with ESMTP id t6JBRYiw020618
	for <ivangayton@gmail.com>; Sun, 19 Jul 2015 04:27:34 -0700
Received: (from horizons@localhost)
	by ssd.jpl.nasa.gov (8.13.8/8.13.8/Submit) id t6JBRYDl020616
	for ivangayton@gmail.com; Sun, 19 Jul 2015 04:27:34 -0700
Date: Sun, 19 Jul 2015 04:27:34 -0700
From: Horizons Ephemeris System <horizons@ssd.jpl.nasa.gov>
Message-Id: <201507191127.t6JBRYDl020616@ssd.jpl.nasa.gov>
Subject: MAJOR BODY #C(500@0)_T(499) (1/1)

 Automated mail xmit by MAIL_REQUEST, PID=   20220 Sun Jul 19 04:27:34 2015
++++++++++++++++++++++++++++++++ (part 1 of 1)  +++++++++++++++++++++++++++++++

*******************************************************************************
 Revised: Sep 28, 2012                 Mars                             499 / 4
 
 GEOPHYSICAL DATA (updated 2009-May-26):
  Mean radius (km)      = 3389.9(2+-4)    Density (g cm^-3)     =  3.933(5+-4)
  Mass (10^23 kg )      =    6.4185       Flattening, f         =  1/154.409
  Volume (x10^10 km^3)  =   16.318        Semi-major axis       =  3397+-4
  Sidereal rot. period  =   24.622962 hr  Rot. Rate (x10^5 s)   =  7.088218
  Mean solar day        =    1.0274907 d  Polar gravity ms^-2   =  3.758
  Mom. of Inertia       =    0.366        Equ. gravity  ms^-2   =  3.71
  Core radius (km)      =  ~1700          Potential Love # k2   =  0.153 +-.017
 
  Grav spectral fact u  =   14 (x10^5)    Topo. spectral fact t = 96 (x10^5)
  Fig. offset (Rcf-Rcm) = 2.50+-0.07 km   Offset (lat./long.)   = 62d / 88d
  GM (km^3 s^-2)        = 42828.3         Equatorial Radius, Re = 3394.0 km 
  GM 1-sigma (km^3 s^-2)= +- 0.1          Mass ratio (Sun/Mars) = 3098708+-9
  
  Atmos. pressure (bar) =    0.0056       Max. angular diam.    =  17.9"
  Mean Temperature (K)  =  210            Visual mag. V(1,0)    =  -1.52
  Geometric albedo      =    0.150        Obliquity to orbit    =  25.19 deg
  Mean sidereal orb per =    1.88081578 y Orbit vel.  km/s      =  24.1309
  Mean sidereal orb per =  686.98 d       Escape vel. km/s      =   5.027
  Hill's sphere rad. Rp =  319.8          Mag. mom (gauss Rp^3) = < 1x10^-4 
*******************************************************************************
 
 
*******************************************************************************
Ephemeris / MAIL_REQUEST Sun Jul 19 04:27:33 2015 Pasadena, USA  / Horizons    
*******************************************************************************
Target body name: Mars (499)                      {source: MAR097}
Center body name: Solar System Barycenter (0)     {source: DE-0431LE-0431}
Center-site name: BODY CENTER
*******************************************************************************
Start time      : A.D. 2015-Jul-19 00:00:00.0000 CT 
Stop  time      : A.D. 2015-Jul-19 00:00:00.0000 CT 
Step-size       : DISCRETE TIME-LIST
*******************************************************************************
Center geodetic : 0.00000000,0.00000000,0.0000000 {E-lon(deg),Lat(deg),Alt(km)}
Center cylindric: 0.00000000,0.00000000,0.0000000 {E-lon(deg),Dxy(km),Dz(km)}
Center radii    : (undefined)                                                  
Output units    : KM-S                                                         
Output format   : 02
Reference frame : ICRF/J2000.0                                                 
Output type     : GEOMETRIC cartesian states
Coordinate systm: Ecliptic and Mean Equinox of Reference Epoch                 
*******************************************************************************
JDCT ,   , X, Y, Z, VX, VY, VZ,
*******************************************************************************
$$SOE
2457222.500000000, A.D. 2015-Jul-19 00:00:00.0000, -4.037466624087462E+07,  2.347805664695798E+08,  5.899214764932930E+06, -2.294583136292722E+01, -2.090389021999498E+00,  5.191423034392622E-01,
$$EOE
*******************************************************************************
Coordinate system description:

  Ecliptic and Mean Equinox of Reference Epoch

    Reference epoch: J2000.0
    xy-plane: plane of the Earth's orbit at the reference epoch
    x-axis  : out along ascending node of instantaneous plane of the Earth's
              orbit and the Earth's mean equator at the reference epoch
    z-axis  : perpendicular to the xy-plane in the directional (+ or -) sense
              of Earth's north pole at the reference epoch.

Symbol meaning  

    JDCT     Epoch Julian Date, Coordinate Time
      X      x-component of position vector (km)                               
      Y      y-component of position vector (km)                               
      Z      z-component of position vector (km)                               
      VX     x-component of velocity vector (km/sec)                           
      VY     y-component of velocity vector (km/sec)                           
      VZ     z-component of velocity vector (km/sec)                           

Geometric states/elements have no aberration corrections applied.

 Computations by ...
     Solar System Dynamics Group, Horizons On-Line Ephemeris System
     4800 Oak Grove Drive, Jet Propulsion Laboratory
     Pasadena, CA  91109   USA
     Information: http://ssd.jpl.nasa.gov/
     Connect    : telnet://ssd.jpl.nasa.gov:6775  (via browser)
                  telnet ssd.jpl.nasa.gov 6775    (via command-line)
     Author     : Jon.Giorgini@jpl.nasa.gov
*******************************************************************************
